[
    {
        "Altitude(m)": 604969.0891773611,
        "Argument of Periapsis(deg)": 0.0,
        "Eccentricity": 0.0,
        "Inclination(deg)": 60.0,
        "Latitude(deg)": -0.09269494989632084,
        "Longitude(deg)": -25.02247223265181,
        "Mean Anomaly(deg)": 0.0,
        "RAAN(deg)": 75.0,
        "Satellite Name": "Test1 330",
        "Satellite Number": 330,
        "Semi-Major Axis(m)": 6980739.136638005,
        "Time(s)": 0
    },
    {
        "Altitude(m)": 604900.028437353,
        "Argument of Periapsis(deg)": 0.00010418945913296404,
        "Eccentricity": 0.0,
        "Inclination(deg)": 60.0,
        "Latitude(deg)": 0.44773142149420664,
        "Longitude(deg)": -24.754350151859594,
        "Mean Anomaly(deg)": 0.6201061454618275,
        "RAAN(deg)": 74.99957995086027,
        "Satellite Name": "Test1 330",
        "Satellite Number": 330,
        "Semi-Major Axis(m)": 6980739.136638005,
        "Time(s)": 10
    }
]